NOAA 19                 
1 33591U 09005A   25333.78204194  .00000054  00000+0  52635-4 0  9999
2 33591  98.9785  39.2910 0013037 231.6546 128.3455 14.13431889866318
